{
  "type": "FeatureCollection",
  "features": [
    {
      "type": "Feature",
      "properties": {
        "norad_id": 43260,
        "name": "GAOFEN-1 03",
        "group": "resource",
        "lat": -66.75310222988246,
        "lon": -151.77641434196286,
        "alt_km": 647.1688604772817,
        "timestamp": "2025-12-15T20:48:53.542795+00:00",
        "meta_object_name": "GAOFEN-1 03",
        "meta_object_id": "2018-031B",
        "meta_epoch": "2025-12-14T22:32:59.152128",
        "meta_mean_motion": 14.764418,
        "meta_eccentricity": 0.00018722,
        "meta_inclination": 98.0797,
        "meta_ra_of_asc_node": 46.6064,
        "meta_arg_of_pericenter": 311.6194,
        "meta_mean_anomaly": 48.4855,
        "meta_ephemeris_type": 0,
        "meta_classification_type": "U",
        "meta_norad_cat_id": 43260,
        "meta_element_set_no": 999,
        "meta_rev_at_epoch": 41550,
        "meta_bstar": 0.00016750816,
        "meta_mean_motion_dot": 1.113e-05,
        "meta_mean_motion_ddot": 0,
        "tle_line1": "1 43260U 18031B   25348.93957352  .00001113  00000+0  16751-3 0  9991",
        "tle_line2": "2 43260  98.0797  46.6064 0001872 311.6194  48.4855 14.76441800415500"
      },
      "geometry": {
        "type": "Point",
        "coordinates": [
          -151.77641434196286,
          -66.75310222988246
        ]
      }
    },
    {
      "type": "Feature",
      "properties": {
        "norad_id": 43262,
        "name": "GAOFEN-1 04",
        "group": "resource",
        "lat": 17.331131806403405,
        "lon": 45.16274357937741,
        "alt_km": 640.5049537219802,
        "timestamp": "2025-12-15T20:48:53.542808+00:00",
        "meta_object_name": "GAOFEN-1 04",
        "meta_object_id": "2018-031D",
        "meta_epoch": "2025-12-14T23:35:28.918176",
        "meta_mean_motion": 14.76455838,
        "meta_eccentricity": 9.615e-05,
        "meta_inclination": 98.0808,
        "meta_ra_of_asc_node": 46.8192,
        "meta_arg_of_pericenter": 59.0635,
        "meta_mean_anomaly": 301.0668,
        "meta_ephemeris_type": 0,
        "meta_classification_type": "U",
        "meta_norad_cat_id": 43262,
        "meta_element_set_no": 999,
        "meta_rev_at_epoch": 41550,
        "meta_bstar": 0.00015501811,
        "meta_mean_motion_dot": 1.027e-05,
        "meta_mean_motion_ddot": 0,
        "tle_line1": "1 43262U 18031D   25348.98297359  .00001027  00000+0  15502-3 0  9999",
        "tle_line2": "2 43262  98.0808  46.8192 0000961  59.0635 301.0668 14.76455838415506"
      },
      "geometry": {
        "type": "Point",
        "coordinates": [
          45.16274357937741,
          17.331131806403405
        ]
      }
    },
    {
      "type": "Feature",
      "properties": {
        "norad_id": 43437,
        "name": "SENTINEL-3B",
        "group": "resource",
        "lat": -14.59984078782533,
        "lon": 57.27398366447816,
        "alt_km": 807.7201185034655,
        "timestamp": "2025-12-15T20:48:53.542818+00:00",
        "meta_object_name": "SENTINEL-3B",
        "meta_object_id": "2018-039A",
        "meta_epoch": "2025-12-14T21:19:12.976032",
        "meta_mean_motion": 14.26734689,
        "meta_eccentricity": 0.00016438,
        "meta_inclination": 98.6266,
        "meta_ra_of_asc_node": 54.043,
        "meta_arg_of_pericenter": 99.9545,
        "meta_mean_anomaly": 260.1821,
        "meta_ephemeris_type": 0,
        "meta_classification_type": "U",
        "meta_norad_cat_id": 43437,
        "meta_element_set_no": 999,
        "meta_rev_at_epoch": 39784,
        "meta_bstar": 7.1664972e-05,
        "meta_mean_motion_dot": 1.3e-06,
        "meta_mean_motion_ddot": 0,
        "tle_line1": "1 43437U 18039A   25348.88834463  .00000130  00000+0  71665-4 0  9990",
        "tle_line2": "2 43437  98.6266  54.0430 0001643  99.9545 260.1821 14.26734689397842"
      },
      "geometry": {
        "type": "Point",
        "coordinates": [
          57.27398366447816,
          -14.59984078782533
        ]
      }
    },
    {
      "type": "Feature",
      "properties": {
        "norad_id": 43461,
        "name": "GAOFEN-5 01",
        "group": "resource",
        "lat": -6.970228689135299,
        "lon": -46.071776587175755,
        "alt_km": 695.1614375010386,
        "timestamp": "2025-12-15T20:48:53.542828+00:00",
        "meta_object_name": "GAOFEN-5 01",
        "meta_object_id": "2018-043A",
        "meta_epoch": "2025-12-14T21:49:34.617216",
        "meta_mean_motion": 14.60411973,
        "meta_eccentricity": 8.102e-05,
        "meta_inclination": 98.4327,
        "meta_ra_of_asc_node": 311.9145,
        "meta_arg_of_pericenter": 331.2279,
        "meta_mean_anomaly": 28.8876,
        "meta_ephemeris_type": 0,
        "meta_classification_type": "U",
        "meta_norad_cat_id": 43461,
        "meta_element_set_no": 999,
        "meta_rev_at_epoch": 40479,
        "meta_bstar": 0.00010858328,
        "meta_mean_motion_dot": 4.77e-06,
        "meta_mean_motion_ddot": 0,
        "tle_line1": "1 43461U 18043A   25348.90942844  .00000477  00000+0  10858-3 0  9998",
        "tle_line2": "2 43461  98.4327 311.9145 0000810 331.2279  28.8876 14.60411973404792"
      },
      "geometry": {
        "type": "Point",
        "coordinates": [
          -46.071776587175755,
          -6.970228689135299
        ]
      }
    },
    {
      "type": "Feature",
      "properties": {
        "norad_id": 43484,
        "name": "GAOFEN-6",
        "group": "resource",
        "lat": 9.60613931145677,
        "lon": -124.64117939030437,
        "alt_km": 645.8508338003558,
        "timestamp": "2025-12-15T20:48:53.542838+00:00",
        "meta_object_name": "GAOFEN-6",
        "meta_object_id": "2018-048A",
        "meta_epoch": "2025-12-14T22:54:17.642304",
        "meta_mean_motion": 14.76573293,
        "meta_eccentricity": 0.00131376,
        "meta_inclination": 97.8031,
        "meta_ra_of_asc_node": 53.1467,
        "meta_arg_of_pericenter": 57.2698,
        "meta_mean_anomaly": 302.9777,
        "meta_ephemeris_type": 0,
        "meta_classification_type": "U",
        "meta_norad_cat_id": 43484,
        "meta_element_set_no": 999,
        "meta_rev_at_epoch": 40620,
        "meta_bstar": 0.00021012334,
        "meta_mean_motion_dot": 1.419e-05,
        "meta_mean_motion_ddot": 0,
        "tle_line1": "1 43484U 18048A   25348.95437086  .00001419  00000+0  21012-3 0  9991",
        "tle_line2": "2 43484  97.8031  53.1467 0013137  57.2698 302.9777 14.76573293406205"
      },
      "geometry": {
        "type": "Point",
        "coordinates": [
          -124.64117939030437,
          9.60613931145677
        ]
      }
    },
    {
      "type": "Feature",
      "properties": {
        "norad_id": 43585,
        "name": "GAOFEN-11 01",
        "group": "resource",
        "lat": 72.29941441249724,
        "lon": 29.58940635254928,
        "alt_km": 413.83024364222274,
        "timestamp": "2025-12-15T20:48:53.542849+00:00",
        "meta_object_name": "GAOFEN-11 01",
        "meta_object_id": "2018-063A",
        "meta_epoch": "2025-12-14T22:47:45.885696",
        "meta_mean_motion": 15.49289321,
        "meta_eccentricity": 0.00042307,
        "meta_inclination": 97.1568,
        "meta_ra_of_asc_node": 51.8649,
        "meta_arg_of_pericenter": 302.8292,
        "meta_mean_anomaly": 57.2552,
        "meta_ephemeris_type": 0,
        "meta_classification_type": "U",
        "meta_norad_cat_id": 43585,
        "meta_element_set_no": 999,
        "meta_rev_at_epoch": 41176,
        "meta_bstar": 0.00020481715,
        "meta_mean_motion_dot": 0.00011109,
        "meta_mean_motion_ddot": 0,
        "tle_line1": "1 43585U 18063A   25348.94983664  .00011109  00000+0  20482-3 0  9994",
        "tle_line2": "2 43585  97.1568  51.8649 0004230 302.8292  57.2552 15.49289321411760"
      },
      "geometry": {
        "type": "Point",
        "coordinates": [
          29.58940635254928,
          72.29941441249724
        ]
      }
    },
    {
      "type": "Feature",
      "properties": {
        "norad_id": 43613,
        "name": "ICESAT-2",
        "group": "resource",
        "lat": -66.61298773783852,
        "lon": -113.77260870399599,
        "alt_km": 489.88821230569283,
        "timestamp": "2025-12-15T20:48:53.542859+00:00",
        "meta_object_name": "ICESAT-2",
        "meta_object_id": "2018-070A",
        "meta_epoch": "2025-12-14T21:32:04.284384",
        "meta_mean_motion": 15.28298004,
        "meta_eccentricity": 0.00025917,
        "meta_inclination": 92.0049,
        "meta_ra_of_asc_node": 241.3195,
        "meta_arg_of_pericenter": 137.3514,
        "meta_mean_anomaly": 222.7937,
        "meta_ephemeris_type": 0,
        "meta_classification_type": "U",
        "meta_norad_cat_id": 43613,
        "meta_element_set_no": 999,
        "meta_rev_at_epoch": 40431,
        "meta_bstar": 0.00031800887,
        "meta_mean_motion_dot": 8.763e-05,
        "meta_mean_motion_ddot": 0,
        "tle_line1": "1 43613U 18070A   25348.89727181  .00008763  00000+0  31801-3 0  9997",
        "tle_line2": "2 43613  92.0049 241.3195 0002591 137.3514 222.7937 15.28298004404312"
      },
      "geometry": {
        "type": "Point",
        "coordinates": [
          -113.77260870399599,
          -66.61298773783852
        ]
      }
    }
  ]
}